{"version": 0.6, "generator": "Overpass API 0.7.62.10 2d4cfc48", "osm3s": {"timestamp_osm_base": "2026-02-26T08:35:45Z", "copyright": "The data included in this document is from www.openstreetmap.org. The data is made available under ODbL."}, "elements": [{"type": "node", "id": 3925278328, "lat": 13.1260715, "lon": 80.1146085, "tags": {"leisure": "park", "name": "Morugappa Cricket Ground", "wheelchair": "yes"}}, {"type": "node", "id": 5229577186, "lat": 13.1216433, "lon": 80.0780793}, {"type": "node", "id": 7990935235, "lat": 13.1259305, "lon": 80.046719}, {"type": "node", "id": 7990935236, "lat": 13.1256289, "lon": 80.0467013}, {"type": "node", "id": 7990935237, "lat": 13.1256341, "lon": 80.0470959}, {"type": "node", "id": 7990935238, "lat": 13.1259236, "lon": 80.0471118}, {"type": "node", "id": 7990935239, "lat": 13.1259409, "lon": 80.0468641}, {"type": "node", "id": 7990935240, "lat": 13.125946, "lon": 80.046719}, {"type": "node", "id": 7990935241, "lat": 13.1238042, "lon": 80.0452903}, {"type": "node", "id": 7990935242, "lat": 13.1235796, "lon": 80.0452286}, {"type": "node", "id": 7990935243, "lat": 13.1235195, "lon": 80.0454378}, {"type": "node", "id": 7990935244, "lat": 13.1237467, "lon": 80.0455264}, {"type": "node", "id": 7990935246, "lat": 13.1244112, "lon": 80.0450006}, {"type": "node", "id": 7990935247, "lat": 13.1241442, "lon": 80.0449221}, {"type": "node", "id": 7990935248, "lat": 13.1241052, "lon": 80.0451146}, {"type": "node", "id": 7990935249, "lat": 13.1242747, "lon": 80.0451993}, {"type": "node", "id": 7990935250, "lat": 13.1242627, "lon": 80.0453426}, {"type": "node", "id": 7990935251, "lat": 13.1243842, "lon": 80.0453703}, {"type": "node", "id": 8549536178, "lat": 13.1302564, "lon": 80.048803}, {"type": "node", "id": 8549536179, "lat": 13.1294982, "lon": 80.0486343}, {"type": "node", "id": 8549536180, "lat": 13.129423, "lon": 80.0490612}, {"type": "node", "id": 8549536181, "lat": 13.1301832, "lon": 80.0492075}, {"type": "node", "id": 8549547729, "lat": 13.1299307, "lon": 80.0510769}, {"type": "node", "id": 8549547730, "lat": 13.1305098, "lon": 80.0512167}, {"type": "node", "id": 8549547731, "lat": 13.1304305, "lon": 80.0516272}, {"type": "node", "id": 8549547732, "lat": 13.1298463, "lon": 80.0515157}, {"type": "node", "id": 8550413323, "lat": 13.1178791, "lon": 80.0468282}, {"type": "node", "id": 8550413324, "lat": 13.1175409, "lon": 80.0468295}, {"type": "node", "id": 8550413325, "lat": 13.1175239, "lon": 80.0471232}, {"type": "node", "id": 8550413326, "lat": 13.11752, "lon": 80.0475872}, {"type": "node", "id": 8550413327, "lat": 13.1178125, "lon": 80.0475886}, {"type": "node", "id": 8550413328, "lat": 13.1178191, "lon": 80.0471286}, {"type": "node", "id": 8550413329, "lat": 13.1178726, "lon": 80.0471286}, {"type": "node", "id": 9535497996, "lat": 13.1094015, "lon": 80.1065755}, {"type": "node", "id": 9535497997, "lat": 13.109634, "lon": 80.1068866}, {"type": "node", "id": 9535498001, "lat": 13.1098273, "lon": 80.10414}, {"type": "node", "id": 9535498002, "lat": 13.1096627, "lon": 80.1041347}, {"type": "node", "id": 9535498003, "lat": 13.1096705, "lon": 80.1045021}, {"type": "node", "id": 9535498004, "lat": 13.1095869, "lon": 80.1045075}, {"type": "node", "id": 9535498005, "lat": 13.1095634, "lon": 80.105119}, {"type": "node", "id": 9535498006, "lat": 13.1095086, "lon": 80.105119}, {"type": "node", "id": 9535498007, "lat": 13.1094772, "lon": 80.105449}, {"type": "node", "id": 12649596018, "lat": 13.1216084, "lon": 80.0772751}, {"type": "node", "id": 12649596019, "lat": 13.1212508, "lon": 80.0772735}, {"type": "node", "id": 12649596020, "lat": 13.1212647, "lon": 80.0780506}, {"type": "way", "id": 857072097, "nodes": [7990935235, 7990935236, 7990935237, 7990935238, 7990935239, 7990935240, 7990935235], "tags": {"addr:city": "Thiruninravur", "addr:postcode": "602024", "addr:street": "Ganapathi Nagar", "description": "A nice and calm temple park were kids can play and others can enjoy the beautiful surroundings.", "landuse": "greenfield", "leisure": "park", "name": "Valli Devasena Subramaniyam Kovil Park", "opening_hours": "Mo-Su 07:00-20:00", "operator": "Valli Devasena Subramaniyam Aalayam", "surface": "grass"}}, {"type": "way", "id": 857072098, "nodes": [7990935241, 7990935242, 7990935243, 7990935244, 7990935241], "tags": {"leisure": "park", "name": "NSS Park in JCAS", "operator": "Jaya College of Arts and Science"}}, {"type": "way", "id": 857072099, "nodes": [7990935246, 7990935247, 7990935248, 7990935249, 7990935250, 7990935251, 7990935246], "tags": {"addr:street": "Sivagami Nagar", "landuse": "greenfield", "leisure": "park", "name": "Sivagami Nagar Park", "surface": "grass"}}, {"type": "way", "id": 920860936, "nodes": [8549536178, 8549536179, 8549536180, 8549536181, 8549536178], "tags": {"addr:city": "Chennai", "addr:postcode": "600072", "addr:street": "5th cross street, Prakash nagar", "landuse": "greenfield", "leisure": "park", "name": "Prakash Nagar Park I", "opening_hours": "24/7", "operator": "Tamilnadu Government", "surface": "grass"}}, {"type": "way", "id": 920862070, "nodes": [8549547729, 8549547730, 8549547731, 8549547732, 8549547729], "tags": {"addr:city": "Chennai", "addr:postcode": "600072", "addr:street": "6th Cross St, Prakash Nagar, Pattabiram", "landuse": "grass", "leisure": "park", "name": "Prakash Nagar Park II", "opening_hours": "24/7", "operator": "Tamilnadu Government", "source": "https://goo.gl/maps/nDktPYPuyGYyBorA8", "surface": "grass"}}, {"type": "way", "id": 920932404, "nodes": [8550413323, 8550413324, 8550413325, 8550413326, 8550413327, 8550413328, 8550413329, 8550413323], "tags": {"addr:city": "Chennai", "addr:postcode": "602024", "addr:street": "Srinath Nagar, Nemilichery", "leisure": "park", "name": "Amma Park", "opening_hours": "24/7", "operator": "Tamilnadu Government", "surface": "grass"}}, {"type": "way", "id": 1035168093, "nodes": [9535498001, 9535497997, 9535497996, 9535498007, 9535498006, 9535498005, 9535498004, 9535498003, 9535498002, 9535498001], "tags": {"leisure": "park"}}, {"type": "way", "id": 1365952107, "nodes": [5229577186, 12649596018, 12649596019, 12649596020, 5229577186], "tags": {"leisure": "park", "name": "Modern City Children Park"}}]}